GLOBALSTAR M067 [+]     
1 32263U 07048A   24111.54322274 -.00000084  00000+0  10194-3 0  9993
2 32263  51.9713 192.5940 0001302 154.0030 309.9854 12.40642062757029
GLOBALSTAR M070 [+]     
1 32264U 07048B   24111.09106618 -.00000037  00000+0  37075-3 0  9991
2 32264  51.9765 337.3971 0000492  94.1622  71.0064 12.62290347760236
GLOBALSTAR M066 [+]     
1 32265U 07048C   24111.42823060 -.00000035  00000+0  38326-3 0  9994
2 32265  51.9665 198.3573 0000763 134.8041 304.9828 12.62260460762542
GLOBALSTAR M068 [-]     
1 32266U 07048D   24111.59169133  .00000004  00000+0  59791-3 0  9991
2 32266  51.9863 150.4287 0000677 281.2286 245.9147 12.62785631764166
GLOBALSTAR M079 [+]     
1 37188U 10054A   24110.86358385 -.00000065  00000+0  21498-3 0  9999
2 37188  52.0060 348.4515 0000999  85.9706 354.9499 12.62268600622998
GLOBALSTAR M074 [+]     
1 37189U 10054B   24111.60222058 -.00000043  00000+0  34095-3 0  9993
2 37189  52.0037 345.5920 0000736  84.9422 353.4534 12.62267461623690
GLOBALSTAR M076 [+]     
1 37190U 10054C   24111.61500934 -.00000051  00000+0  29608-3 0  9991
2 37190  52.0050 345.6843 0001014 115.6179 261.8192 12.62276970623410
GLOBALSTAR M077 [+]     
1 37191U 10054D   24110.74505706 -.00000069  00000+0  19497-3 0  9991
2 37191  52.0073 305.0685 0000760 104.2791 336.9968 12.62271819623671
